[ {"OBJECT_NAME": "QIANFAN-19", "OBJECT_ID": "2024-185A", "EPOCH": "2026-06-11T21:47:36.301056", "MEAN_MOTION": 14.14472672, "ECCENTRICITY": 0.00092961, "INCLINATION": 88.9844, "RA_OF_ASC_NODE": 57.1765, "ARG_OF_PERICENTER": 82.8285, "MEAN_ANOMALY": 277.3959, "EPHEMERIS_TYPE": 0, "CLASSIFICATION_TYPE": "U", "NORAD_CAT_ID": 61552, "ELEMENT_SET_NO": 999, "REV_AT_EPOCH": 9527, "BSTAR": 0.00016305116, "MEAN_MOTION_DOT": 3.27e-06, "MEAN_MOTION_DDOT": 0}, {"OBJECT_NAME": "STARLINK-11356 [DTC]", "OBJECT_ID": "2024-187A", "EPOCH": "2026-06-11T08:53:30.323040", "MEAN_MOTION": 15.69707896, "ECCENTRICITY": 9.22e-05, "INCLINATION": 53.1583, "RA_OF_ASC_NODE": 194.4633, "ARG_OF_PERICENTER": 88.4023, "MEAN_ANOMALY": 271.71, "EPHEMERIS_TYPE": 0, "CLASSIFICATION_TYPE": "U", "NORAD_CAT_ID": 61574, "ELEMENT_SET_NO": 999, "REV_AT_EPOCH": 9549, "BSTAR": 7.2215e-06, "MEAN_MOTION_DOT": 2.87e-06, "MEAN_MOTION_DDOT": 0}, {"OBJECT_NAME": "STARLINK-32397", "OBJECT_ID": "2024-187V", "EPOCH": "2026-06-11T18:15:33.432768", "MEAN_MOTION": 15.34385877, "ECCENTRICITY": 0.00010498, "INCLINATION": 53.1619, "RA_OF_ASC_NODE": 344.7252, "ARG_OF_PERICENTER": 57.7576, "MEAN_ANOMALY": 302.3528, "EPHEMERIS_TYPE": 0, "CLASSIFICATION_TYPE": "U", "NORAD_CAT_ID": 61593, "ELEMENT_SET_NO": 999, "REV_AT_EPOCH": 9353, "BSTAR": 0.00018961306, "MEAN_MOTION_DOT": 6.033e-05, "MEAN_MOTION_DDOT": 0}, {"OBJECT_NAME": "ONEWEB-0707", "OBJECT_ID": "2024-188U", "EPOCH": "2026-06-11T15:28:26.013792", "MEAN_MOTION": 13.10371988, "ECCENTRICITY": 0.0001869, "INCLINATION": 87.8846, "RA_OF_ASC_NODE": 37.3629, "ARG_OF_PERICENTER": 100.6159, "MEAN_ANOMALY": 259.5179, "EPHEMERIS_TYPE": 0, "CLASSIFICATION_TYPE": "U", "NORAD_CAT_ID": 61612, "ELEMENT_SET_NO": 999, "REV_AT_EPOCH": 8259, "BSTAR": 0.001831337, "MEAN_MOTION_DOT": 6.52e-06, "MEAN_MOTION_DDOT": 0}, {"OBJECT_NAME": "STARLINK-32455", "OBJECT_ID": "2024-191M", "EPOCH": "2026-06-09T19:45:32.967936", "MEAN_MOTION": 15.27561105, "ECCENTRICITY": 0.00018845, "INCLINATION": 43.0042, "RA_OF_ASC_NODE": 357.9416, "ARG_OF_PERICENTER": 273.8166, "MEAN_ANOMALY": 86.247, "EPHEMERIS_TYPE": 0, "CLASSIFICATION_TYPE": "U", "NORAD_CAT_ID": 61632, "ELEMENT_SET_NO": 999, "REV_AT_EPOCH": 9158, "BSTAR": 5.0736343e-05, "MEAN_MOTION_DOT": 1.133e-05, "MEAN_MOTION_DDOT": 0}, {"OBJECT_NAME": "STARLINK-32441", "OBJECT_ID": "2024-193H", "EPOCH": "2026-06-11T20:44:27.635136", "MEAN_MOTION": 15.30198048, "ECCENTRICITY": 0.00013086, "INCLINATION": 53.1614, "RA_OF_ASC_NODE": 13.6869, "ARG_OF_PERICENTER": 91.8427, "MEAN_ANOMALY": 268.2724, "EPHEMERIS_TYPE": 0, "CLASSIFICATION_TYPE": "U", "NORAD_CAT_ID": 61668, "ELEMENT_SET_NO": 999, "REV_AT_EPOCH": 9094, "BSTAR": 1.3916494e-05, "MEAN_MOTION_DOT": 5.3e-07, "MEAN_MOTION_DDOT": 0}, {"OBJECT_NAME": "STARLINK-11339 [DTC]", "OBJECT_ID": "2024-195E", "EPOCH": "2026-06-11T14:35:34.593792", "MEAN_MOTION": 15.69698108, "ECCENTRICITY": 8.883e-05, "INCLINATION": 53.159, "RA_OF_ASC_NODE": 283.346, "ARG_OF_PERICENTER": 73.2985, "MEAN_ANOMALY": 286.813, "EPHEMERIS_TYPE": 0, "CLASSIFICATION_TYPE": "U", "NORAD_CAT_ID": 61691, "ELEMENT_SET_NO": 999, "REV_AT_EPOCH": 9378, "BSTAR": -9.490458e-06, "MEAN_MOTION_DOT": -1.737e-05, "MEAN_MOTION_DDOT": 0}, {"OBJECT_NAME": "STARLINK-32343", "OBJECT_ID": "2024-196F", "EPOCH": "2026-06-11T22:16:57.425088", "MEAN_MOTION": 15.30197495, "ECCENTRICITY": 0.00012348, "INCLINATION": 53.161, "RA_OF_ASC_NODE": 23.7054, "ARG_OF_PERICENTER": 58.0099, "MEAN_ANOMALY": 302.1021, "EPHEMERIS_TYPE": 0, "CLASSIFICATION_TYPE": "U", "NORAD_CAT_ID": 61712, "ELEMENT_SET_NO": 999, "REV_AT_EPOCH": 9158, "BSTAR": -3.3031957e-05, "MEAN_MOTION_DOT": -1.337e-05, "MEAN_MOTION_DDOT": 0}, {"OBJECT_NAME": "DSN-3 (KIRAMEKI-3)", "OBJECT_ID": "2024-198A", "EPOCH": "2026-06-11T22:29:03.039936", "MEAN_MOTION": 1.00269033, "ECCENTRICITY": 9.42e-05, "INCLINATION": 0.0175, "RA_OF_ASC_NODE": 325.0869, "ARG_OF_PERICENTER": 201.8237, "MEAN_ANOMALY": 214.6791, "EPHEMERIS_TYPE": 0, "CLASSIFICATION_TYPE": "U", "NORAD_CAT_ID": 61733, "ELEMENT_SET_NO": 999, "REV_AT_EPOCH": 586, "BSTAR": 0, "MEAN_MOTION_DOT": -2.34e-06, "MEAN_MOTION_DDOT": 0}, {"OBJECT_NAME": "HORS 3 (RS81S)", "OBJECT_ID": "2024-199U", "EPOCH": "2026-06-11T22:34:40.240992", "MEAN_MOTION": 15.54608615, "ECCENTRICITY": 0.00038789, "INCLINATION": 97.2993, "RA_OF_ASC_NODE": 38.6788, "ARG_OF_PERICENTER": 310.87, "MEAN_ANOMALY": 49.2217, "EPHEMERIS_TYPE": 0, "CLASSIFICATION_TYPE": "U", "NORAD_CAT_ID": 61753, "ELEMENT_SET_NO": 999, "REV_AT_EPOCH": 13674, "BSTAR": 0.0005190597, "MEAN_MOTION_DOT": 0.0003431, "MEAN_MOTION_DDOT": 0}, {"OBJECT_NAME": "2024-199AU", "OBJECT_ID": "2024-199AU", "EPOCH": "2026-06-11T22:27:50.424192", "MEAN_MOTION": 15.45408739, "ECCENTRICITY": 0.00127149, "INCLINATION": 97.3004, "RA_OF_ASC_NODE": 35.4494, "ARG_OF_PERICENTER": 300.2422, "MEAN_ANOMALY": 59.7568, "EPHEMERIS_TYPE": 0, "CLASSIFICATION_TYPE": "U", "NORAD_CAT_ID": 61777, "ELEMENT_SET_NO": 999, "REV_AT_EPOCH": 13337, "BSTAR": 0.00033798429, "MEAN_MOTION_DOT": 0.00016128, "MEAN_MOTION_DDOT": 0}, {"OBJECT_NAME": "STARLINK-32433", "OBJECT_ID": "2024-202H", "EPOCH": "2026-06-11T00:17:14.479296", "MEAN_MOTION": 15.27575012, "ECCENTRICITY": 8.669e-05, "INCLINATION": 43.0026, "RA_OF_ASC_NODE": 70.6499, "ARG_OF_PERICENTER": 282.4786, "MEAN_ANOMALY": 77.5968, "EPHEMERIS_TYPE": 0, "CLASSIFICATION_TYPE": "U", "NORAD_CAT_ID": 61852, "ELEMENT_SET_NO": 999, "REV_AT_EPOCH": 8961, "BSTAR": 5.28815e-06, "MEAN_MOTION_DOT": -1.16e-06, "MEAN_MOTION_DDOT": 0}, {"OBJECT_NAME": "2024-203D", "OBJECT_ID": "2024-203D", "EPOCH": "2026-06-11T23:19:46.719264", "MEAN_MOTION": 15.26956459, "ECCENTRICITY": 0.00105312, "INCLINATION": 97.4262, "RA_OF_ASC_NODE": 233.1358, "ARG_OF_PERICENTER": 8.9747, "MEAN_ANOMALY": 351.1678, "EPHEMERIS_TYPE": 0, "CLASSIFICATION_TYPE": "U", "NORAD_CAT_ID": 61872, "ELEMENT_SET_NO": 999, "REV_AT_EPOCH": 8812, "BSTAR": 0.00036255102, "MEAN_MOTION_DOT": 9.539e-05, "MEAN_MOTION_DDOT": 0}, {"OBJECT_NAME": "STARLINK-32489", "OBJECT_ID": "2024-204V", "EPOCH": "2026-06-11T21:35:54.089376", "MEAN_MOTION": 15.34386744, "ECCENTRICITY": 0.0001401, "INCLINATION": 53.1612, "RA_OF_ASC_NODE": 47.927, "ARG_OF_PERICENTER": 111.139, "MEAN_ANOMALY": 248.9763, "EPHEMERIS_TYPE": 0, "CLASSIFICATION_TYPE": "U", "NORAD_CAT_ID": 61893, "ELEMENT_SET_NO": 999, "REV_AT_EPOCH": 8953, "BSTAR": 8.6445743e-05, "MEAN_MOTION_DOT": 2.544e-05, "MEAN_MOTION_DDOT": 0}, {"OBJECT_NAME": "STARLINK-32460", "OBJECT_ID": "2024-207C", "EPOCH": "2026-06-11T04:05:43.223424", "MEAN_MOTION": 15.27588307, "ECCENTRICITY": 0.00021518, "INCLINATION": 42.9971, "RA_OF_ASC_NODE": 113.3945, "ARG_OF_PERICENTER": 275.8597, "MEAN_ANOMALY": 84.2009, "EPHEMERIS_TYPE": 0, "CLASSIFICATION_TYPE": "U", "NORAD_CAT_ID": 61914, "ELEMENT_SET_NO": 999, "REV_AT_EPOCH": 8902, "BSTAR": 0.00055438754, "MEAN_MOTION_DOT": 0.00015029, "MEAN_MOTION_DDOT": 0}, {"OBJECT_NAME": "STARLINK-32361", "OBJECT_ID": "2024-207X", "EPOCH": "2026-06-11T13:19:45.617376", "MEAN_MOTION": 15.27594281, "ECCENTRICITY": 0.0002131, "INCLINATION": 42.9929, "RA_OF_ASC_NODE": 111.9571, "ARG_OF_PERICENTER": 276.024, "MEAN_ANOMALY": 84.0368, "EPHEMERIS_TYPE": 0, "CLASSIFICATION_TYPE": "U", "NORAD_CAT_ID": 61933, "ELEMENT_SET_NO": 999, "REV_AT_EPOCH": 8907, "BSTAR": 0.00086935, "MEAN_MOTION_DOT": 0.00023749, "MEAN_MOTION_DDOT": 0}]