QIANFAN-19              
1 61552U 24185A   26162.90805904  .00000327  00000+0  16305-3 0  9990
2 61552  88.9844  57.1765 0009296  82.8285 277.3959 14.14472672 95275
STARLINK-11356 [DTC]    
1 61574U 24187A   26162.37048985  .00000287  00000+0  72215-5 0  9994
2 61574  53.1583 194.4633 0000922  88.4023 271.7100 15.69707896 95491
STARLINK-32397          
1 61593U 24187V   26162.76080362  .00006033  00000+0  18961-3 0  9994
2 61593  53.1619 344.7252 0001049  57.7576 302.3528 15.34385877 93533
ONEWEB-0707             
1 61612U 24188U   26162.64474553  .00000652  00000+0  18313-2 0  9994
2 61612  87.8846  37.3629 0001869 100.6159 259.5179 13.10371988 82598
STARLINK-32455          
1 61632U 24191M   26160.82329824  .00001133  00000+0  50736-4 0  9990
2 61632  43.0042 357.9416 0001884 273.8166  86.2470 15.27561105 91585
STARLINK-32441          
1 61668U 24193H   26162.86420874  .00000053  00000+0  13916-4 0  9993
2 61668  53.1614  13.6869 0001308  91.8427 268.2724 15.30198048 90947
STARLINK-11339 [DTC]    
1 61691U 24195E   26162.60803928 -.00001737  00000+0 -94905-5 0  9998
2 61691  53.1590 283.3460 0000888  73.2985 286.8130 15.69698108 93780
STARLINK-32343          
1 61712U 24196F   26162.92844242 -.00001337  00000+0 -33032-4 0  9991
2 61712  53.1610  23.7054 0001234  58.0099 302.1021 15.30197495 91583
DSN-3 (KIRAMEKI-3)      
1 61733U 24198A   26162.93684074 -.00000234  00000+0  00000+0 0  9990
2 61733   0.0175 325.0869 0000942 201.8237 214.6791  1.00269033  5869
HORS 3 (RS81S)          
1 61753U 24199U   26162.94074353  .00034310  00000+0  51906-3 0  9993
2 61753  97.2993  38.6788 0003878 310.8700  49.2217 15.54608615136745
2024-199AU              
1 61777U 24199AU  26162.93600028  .00016128  00000+0  33798-3 0  9998
2 61777  97.3004  35.4494 0012714 300.2422  59.7568 15.45408739133373
STARLINK-32433          
1 61852U 24202H   26162.01197314 -.00000116  00000+0  52882-5 0  9993
2 61852  43.0026  70.6499 0000866 282.4786  77.5968 15.27575012 89612
2024-203D               
1 61872U 24203D   26162.97206851  .00009539  00000+0  36255-3 0  9999
2 61872  97.4262 233.1358 0010531   8.9747 351.1678 15.26956459 88128
STARLINK-32489          
1 61893U 24204V   26162.89993159  .00002544  00000+0  86446-4 0  9995
2 61893  53.1612  47.9270 0001401 111.1390 248.9763 15.34386744 89537
STARLINK-32460          
1 61914U 24207C   26162.17063916  .00015029  00000+0  55439-3 0  9991
2 61914  42.9971 113.3945 0002151 275.8597  84.2009 15.27588307 89021
STARLINK-32361          
1 61933U 24207X   26162.55538909  .00023749  00000+0  86935-3 0  9996
2 61933  42.9929 111.9571 0002131 276.0240  84.0368 15.27594281 89079
